[{"OBJECT_NAME":"ONEWEB-0092","OBJECT_ID":"2020-020P","EPOCH":"2025-11-18T08:43:09.071616","MEAN_MOTION":13.1141453,"ECCENTRICITY":0.0001319,"INCLINATION":87.8872,"RA_OF_ASC_NODE":63.0446,"ARG_OF_PERICENTER":96.1285,"MEAN_ANOMALY":263.9993,"EPHEMERIS_TYPE":0,"CLASSIFICATION_TYPE":"U","NORAD_CAT_ID":45437,"ELEMENT_SET_NO":999,"REV_AT_EPOCH":27515,"BSTAR":0.00057924,"MEAN_MOTION_DOT":2.18e-6,"MEAN_MOTION_DDOT":0},{"OBJECT_NAME":"ONEWEB-0085","OBJECT_ID":"2020-020Q","EPOCH":"2025-11-18T05:55:54.626592","MEAN_MOTION":13.11417922,"ECCENTRICITY":0.0001605,"INCLINATION":87.8864,"RA_OF_ASC_NODE":63.0766,"ARG_OF_PERICENTER":102.2437,"MEAN_ANOMALY":257.887,"EPHEMERIS_TYPE":0,"CLASSIFICATION_TYPE":"U","NORAD_CAT_ID":45438,"ELEMENT_SET_NO":999,"REV_AT_EPOCH":27502,"BSTAR":-0.00086549,"MEAN_MOTION_DOT":-2.94e-6,"MEAN_MOTION_DDOT":0},{"OBJECT_NAME":"ONEWEB-0096","OBJECT_ID":"2020-020R","EPOCH":"2025-11-18T05:58:20.920800","MEAN_MOTION":13.11417538,"ECCENTRICITY":0.0001724,"INCLINATION":87.8873,"RA_OF_ASC_NODE":63.0542,"ARG_OF_PERICENTER":107.5678,"MEAN_ANOMALY":252.5638,"EPHEMERIS_TYPE":0,"CLASSIFICATION_TYPE":"U","NORAD_CAT_ID":45439,"ELEMENT_SET_NO":999,"REV_AT_EPOCH":27501,"BSTAR":-0.00056341,"MEAN_MOTION_DOT":-1.87e-6,"MEAN_MOTION_DDOT":0},{"OBJECT_NAME":"ONEWEB-0037","OBJECT_ID":"2020-020S","EPOCH":"2025-11-18T07:20:07.772064","MEAN_MOTION":13.11415555,"ECCENTRICITY":0.0001557,"INCLINATION":87.8879,"RA_OF_ASC_NODE":63.0107,"ARG_OF_PERICENTER":103.0076,"MEAN_ANOMALY":257.1226,"EPHEMERIS_TYPE":0,"CLASSIFICATION_TYPE":"U","NORAD_CAT_ID":45440,"ELEMENT_SET_NO":999,"REV_AT_EPOCH":27505,"BSTAR":-0.0011572,"MEAN_MOTION_DOT":-3.97e-6,"MEAN_MOTION_DDOT":0},{"OBJECT_NAME":"ONEWEB-0042","OBJECT_ID":"2020-020T","EPOCH":"2025-11-18T05:43:29.844768","MEAN_MOTION":13.11416744,"ECCENTRICITY":0.0001517,"INCLINATION":87.8869,"RA_OF_ASC_NODE":63.0565,"ARG_OF_PERICENTER":106.4228,"MEAN_ANOMALY":253.7067,"EPHEMERIS_TYPE":0,"CLASSIFICATION_TYPE":"U","NORAD_CAT_ID":45441,"ELEMENT_SET_NO":999,"REV_AT_EPOCH":27501,"BSTAR":-0.0013416,"MEAN_MOTION_DOT":-4.63e-6,"MEAN_MOTION_DDOT":0},{"OBJECT_NAME":"ONEWEB-0098","OBJECT_ID":"2020-020U","EPOCH":"2025-11-18T05:37:35.285952","MEAN_MOTION":13.11417331,"ECCENTRICITY":0.0001694,"INCLINATION":87.8871,"RA_OF_ASC_NODE":63.0694,"ARG_OF_PERICENTER":101.0045,"MEAN_ANOMALY":259.1273,"EPHEMERIS_TYPE":0,"CLASSIFICATION_TYPE":"U","NORAD_CAT_ID":45442,"ELEMENT_SET_NO":999,"REV_AT_EPOCH":27499,"BSTAR":-0.0013863,"MEAN_MOTION_DOT":-4.79e-6,"MEAN_MOTION_DDOT":0},{"OBJECT_NAME":"ONEWEB-0055","OBJECT_ID":"2020-020V","EPOCH":"2025-11-18T08:52:54.628608","MEAN_MOTION":13.114141,"ECCENTRICITY":0.0002183,"INCLINATION":87.8854,"RA_OF_ASC_NODE":63.0403,"ARG_OF_PERICENTER":106.6229,"MEAN_ANOMALY":253.5138,"EPHEMERIS_TYPE":0,"CLASSIFICATION_TYPE":"U","NORAD_CAT_ID":45443,"ELEMENT_SET_NO":999,"REV_AT_EPOCH":27498,"BSTAR":-6.0601e-7,"MEAN_MOTION_DOT":1.2e-7,"MEAN_MOTION_DDOT":0},{"OBJECT_NAME":"ONEWEB-0093","OBJECT_ID":"2020-020W","EPOCH":"2025-11-18T08:17:43.656288","MEAN_MOTION":13.11417261,"ECCENTRICITY":0.0001591,"INCLINATION":87.887,"RA_OF_ASC_NODE":63.0343,"ARG_OF_PERICENTER":118.1491,"MEAN_ANOMALY":241.9798,"EPHEMERIS_TYPE":0,"CLASSIFICATION_TYPE":"U","NORAD_CAT_ID":45444,"ELEMENT_SET_NO":999,"REV_AT_EPOCH":27504,"BSTAR":0.0011546,"MEAN_MOTION_DOT":4.22e-6,"MEAN_MOTION_DDOT":0},{"OBJECT_NAME":"ONEWEB-0029","OBJECT_ID":"2020-020X","EPOCH":"2025-11-18T06:50:50.859168","MEAN_MOTION":13.11416625,"ECCENTRICITY":0.0001685,"INCLINATION":87.8872,"RA_OF_ASC_NODE":63.0589,"ARG_OF_PERICENTER":107.8263,"MEAN_ANOMALY":252.3049,"EPHEMERIS_TYPE":0,"CLASSIFICATION_TYPE":"U","NORAD_CAT_ID":45445,"ELEMENT_SET_NO":999,"REV_AT_EPOCH":27501,"BSTAR":0.0011183,"MEAN_MOTION_DOT":4.09e-6,"MEAN_MOTION_DDOT":0},{"OBJECT_NAME":"ONEWEB-0068","OBJECT_ID":"2020-020Y","EPOCH":"2025-11-18T08:17:19.923936","MEAN_MOTION":13.11416407,"ECCENTRICITY":0.0001682,"INCLINATION":87.8873,"RA_OF_ASC_NODE":63.0359,"ARG_OF_PERICENTER":107.271,"MEAN_ANOMALY":252.8602,"EPHEMERIS_TYPE":0,"CLASSIFICATION_TYPE":"U","NORAD_CAT_ID":45446,"ELEMENT_SET_NO":999,"REV_AT_EPOCH":27496,"BSTAR":0.0010831,"MEAN_MOTION_DOT":3.97e-6,"MEAN_MOTION_DDOT":0},{"OBJECT_NAME":"ONEWEB-0046","OBJECT_ID":"2020-020Z","EPOCH":"2025-11-18T08:05:18.789792","MEAN_MOTION":13.11417859,"ECCENTRICITY":0.0001479,"INCLINATION":87.8872,"RA_OF_ASC_NODE":63.0456,"ARG_OF_PERICENTER":109.3228,"MEAN_ANOMALY":250.806,"EPHEMERIS_TYPE":0,"CLASSIFICATION_TYPE":"U","NORAD_CAT_ID":45447,"ELEMENT_SET_NO":999,"REV_AT_EPOCH":27497,"BSTAR":0.00046145,"MEAN_MOTION_DOT":1.76e-6,"MEAN_MOTION_DDOT":0},{"OBJECT_NAME":"ONEWEB-0063","OBJECT_ID":"2020-020AA","EPOCH":"2025-11-18T06:56:57.041376","MEAN_MOTION":13.11414656,"ECCENTRICITY":0.000141,"INCLINATION":87.8872,"RA_OF_ASC_NODE":63.0531,"ARG_OF_PERICENTER":102.7114,"MEAN_ANOMALY":257.4171,"EPHEMERIS_TYPE":0,"CLASSIFICATION_TYPE":"U","NORAD_CAT_ID":45448,"ELEMENT_SET_NO":999,"REV_AT_EPOCH":27505,"BSTAR":0.00064242,"MEAN_MOTION_DOT":2.4e-6,"MEAN_MOTION_DDOT":0},{"OBJECT_NAME":"ONEWEB-0019","OBJECT_ID":"2020-020AB","EPOCH":"2025-11-18T08:08:57.653088","MEAN_MOTION":13.11420799,"ECCENTRICITY":0.0001733,"INCLINATION":87.8859,"RA_OF_ASC_NODE":63.0553,"ARG_OF_PERICENTER":102.691,"MEAN_ANOMALY":257.4412,"EPHEMERIS_TYPE":0,"CLASSIFICATION_TYPE":"U","NORAD_CAT_ID":45449,"ELEMENT_SET_NO":999,"REV_AT_EPOCH":27490,"BSTAR":0.00069531,"MEAN_MOTION_DOT":2.59e-6,"MEAN_MOTION_DDOT":0},{"OBJECT_NAME":"ONEWEB-0094","OBJECT_ID":"2020-020AC","EPOCH":"2025-11-18T06:03:14.397408","MEAN_MOTION":13.1765172,"ECCENTRICITY":0.0001718,"INCLINATION":87.9143,"RA_OF_ASC_NODE":47.7781,"ARG_OF_PERICENTER":102.9307,"MEAN_ANOMALY":257.2017,"EPHEMERIS_TYPE":0,"CLASSIFICATION_TYPE":"U","NORAD_CAT_ID":45450,"ELEMENT_SET_NO":999,"REV_AT_EPOCH":27853,"BSTAR":0.00014608,"MEAN_MOTION_DOT":7.0e-7,"MEAN_MOTION_DDOT":0},{"OBJECT_NAME":"ONEWEB-0087","OBJECT_ID":"2020-020AD","EPOCH":"2025-11-18T07:11:23.083008","MEAN_MOTION":13.11414011,"ECCENTRICITY":0.0001835,"INCLINATION":87.8881,"RA_OF_ASC_NODE":63.0068,"ARG_OF_PERICENTER":112.1146,"MEAN_ANOMALY":248.0177,"EPHEMERIS_TYPE":0,"CLASSIFICATION_TYPE":"U","NORAD_CAT_ID":45451,"ELEMENT_SET_NO":999,"REV_AT_EPOCH":27494,"BSTAR":-0.0005391,"MEAN_MOTION_DOT":-1.78e-6,"MEAN_MOTION_DDOT":0},{"OBJECT_NAME":"ONEWEB-0082","OBJECT_ID":"2020-020AE","EPOCH":"2025-11-18T07:06:42.149088","MEAN_MOTION":13.11413834,"ECCENTRICITY":0.0001786,"INCLINATION":87.8878,"RA_OF_ASC_NODE":63.0328,"ARG_OF_PERICENTER":109.6156,"MEAN_ANOMALY":250.5165,"EPHEMERIS_TYPE":0,"CLASSIFICATION_TYPE":"U","NORAD_CAT_ID":45452,"ELEMENT_SET_NO":999,"REV_AT_EPOCH":27503,"BSTAR":-0.00021115,"MEAN_MOTION_DOT":-6.2e-7,"MEAN_MOTION_DDOT":0},{"OBJECT_NAME":"ONEWEB-0050","OBJECT_ID":"2020-020AF","EPOCH":"2025-11-18T09:15:56.416896","MEAN_MOTION":14.89332753,"ECCENTRICITY":0.000497,"INCLINATION":88.9216,"RA_OF_ASC_NODE":261.9673,"ARG_OF_PERICENTER":49.8819,"MEAN_ANOMALY":310.2844,"EPHEMERIS_TYPE":0,"CLASSIFICATION_TYPE":"U","NORAD_CAT_ID":45453,"ELEMENT_SET_NO":999,"REV_AT_EPOCH":30899,"BSTAR":-0.00090312,"MEAN_MOTION_DOT":-8.52e-5,"MEAN_MOTION_DDOT":0}]
